H1 CPF 01  gfz 2021 01 30 01  5301 terrasarx 
H2 0702601  6201 31698    2021 01 30 00 59 42 2021 02 04 00 00 42   120 1 1  0 0 0
H9
10 0 59247   9342.000000  0   -2210554.766  -1437505.736   6353389.004
10 0 59247   9462.000000  0   -1701675.637   -720207.697   6625435.707
10 0 59247   9582.000000  0   -1150523.408       381.100   6781057.129
10 0 59247   9702.000000  0    -566775.462    711032.290   6817538.335
10 0 59247   9822.000000  0      39097.756   1398869.352   6734243.939
10 0 59247   9942.000000  0     656020.231   2051600.676   6532628.825
10 0 59247  10062.000000  0    1272512.515   2657739.201   6216213.777
10 0 59247  10182.000000  0    1876904.305   3206804.526   5790527.681
10 0 59247  10302.000000  0    2457554.800   3689506.744   5263017.381
10 0 59247  10422.000000  0    3003078.549   4097908.506   4642923.873
10 0 59247  10542.000000  0    3502571.172   4425560.114   3941124.504
10 0 59247  10662.000000  0    3945828.951   4667606.214   3169947.381
10 0 59247  10782.000000  0    4323563.618   4820864.381   2342957.013
10 0 59247  10902.000000  0    4627599.442   4883867.069   1474710.710
10 0 59247  11022.000000  0    4851050.316   4856870.527    580499.424
10 0 59247  11142.000000  0    4988476.009   4741829.076   -323929.939
10 0 59247  11262.000000  0    5036006.361   4542332.310  -1222661.727
10 0 59247  11382.000000  0    4991434.517   4263509.635  -2099899.266
10 0 59247  11502.000000  0    4854277.628   3911905.133  -2940249.361
10 0 59247  11622.000000  0    4625802.150   3495325.338  -3728997.324
10 0 59247  11742.000000  0    4309013.254   3022664.875  -4452366.383
10 0 59247  11862.000000  0    3908610.177   2503713.786  -5097756.210
10 0 59247  11982.000000  0    3430909.773   1948951.597  -5653956.470
10 0 59247  12102.000000  0    2883739.472   1369333.933  -6111332.970
10 0 59247  12222.000000  0    2276302.296    776076.036  -6461983.534
10 0 59247  12342.000000  0    1619018.414    180437.817  -6699862.240
10 0 59247  12462.000000  0     923347.071   -406485.676  -6820873.865
10 0 59247  12582.000000  0     201587.913   -973967.047  -6822937.771
10 0 59247  12702.000000  0    -533332.415  -1511837.504  -6706017.757
10 0 59247  12822.000000  0   -1268085.447  -2010663.714  -6472122.998
10 0 59247  12942.000000  0   -1989177.265  -2461910.348  -6125278.014
10 0 59247  13062.000000  0   -2683190.804  -2858084.541  -5671460.166
10 0 59247  13182.000000  0   -3337031.425  -3192860.690  -5118507.832
10 0 59247  13302.000000  0   -3938174.314  -3461185.036  -4475997.161
10 0 59247  13422.000000  0   -4474906.864  -3659355.685  -3755086.409
10 0 59247  13542.000000  0   -4936561.542  -3785076.926  -2968331.552
10 0 59247  13662.000000  0   -5313734.745  -3837486.627  -2129473.819
10 0 59247  13782.000000  0   -5598485.540  -3817154.897  -1253201.898
10 0 59247  13902.000000  0   -5784509.090  -3726053.626   -354893.650
10 0 59247  14022.000000  0   -5867280.349  -3567497.356    549658.225
10 0 59247  14142.000000  0   -5844164.086  -3346056.861   1444531.523
10 0 59247  14262.000000  0   -5714485.932  -3067445.977   2313965.098
10 0 59247  14382.000000  0   -5479562.849  -2738384.762   3142645.107
10 0 59247  14502.000000  0   -5142694.186  -2366444.625   3915982.014
10 0 59247  14622.000000  0   -4709111.923  -1959876.903   4620373.636
10 0 59247  14742.000000  0   -4185891.931  -1527430.460   5243445.439
10 0 59247  14862.000000  0   -3581831.318  -1078164.636   5774265.793
10 0 59247  14982.000000  0   -2907293.777   -621259.977   6203535.363
10 0 59247  15102.000000  0   -2174024.149   -165830.044   6523745.819
10 0 59247  15222.000000  0   -1394937.414    279259.816   6729303.826
10 0 59247  15342.000000  0    -583888.549    705562.899   6816622.284
10 0 59247  15462.000000  0     244574.265   1105210.218   6784178.904
10 0 59247  15582.000000  0    1075469.783   1471055.171   6632541.075
10 0 59247  15702.000000  0    1893653.814   1796801.668   6364356.426
10 0 59247  15822.000000  0    2684094.244   2077112.495   5984309.183
10 0 59247  15942.000000  0    3432147.837   2307697.486   5499044.293
10 0 59247  16062.000000  0    4123834.753   2485379.960   4917057.047
10 0 59247  16182.000000  0    4746103.452   2608140.557   4248550.292
10 0 59247  16302.000000  0    5287084.065   2675137.828   3505262.003
10 0 59247  16422.000000  0    5736325.434   2686703.275   2700259.637
10 0 59247  16542.000000  0    6085002.867   2644310.919   1847709.406
10 0 59247  16662.000000  0    6326100.130   2550524.222    962624.262
10 0 59247  16782.000000  0    6454556.367   2408918.873     60592.353
10 0 59247  16902.000000  0    6467373.180   2223984.115   -842506.896
10 0 59247  17022.000000  0    6363678.491   2001004.709  -1730790.811
10 0 59247  17142.000000  0    6144751.130   1745928.639  -2588658.943
10 0 59247  17262.000000  0    5814001.709   1465221.825  -3401074.650
10 0 59247  17382.000000  0    5376910.000   1165713.713  -4153832.030
10 0 59247  17502.000000  0    4840921.601    854438.789  -4833804.141
10 0 59247  17622.000000  0    4215308.369    538478.498  -5429166.513
10 0 59247  17742.000000  0    3510997.795    224806.663  -5929594.517
10 0 59247  17862.000000  0    2740373.926    -79858.055  -6326432.736
10 0 59247  17982.000000  0    1917053.918   -369190.319  -6612833.172
10 0 59247  18102.000000  0    1055647.168   -637384.324  -6783862.191
10 0 59247  18222.000000  0     171498.160   -879266.108  -6836577.808
10 0 59247  18342.000000  0    -719582.640  -1090389.492  -6770073.417
10 0 59247  18462.000000  0   -1601594.154  -1267115.329  -6585491.764
10 0 59247  18582.000000  0   -2458625.914  -1406672.971  -6286007.775
10 0 59247  18702.000000  0   -3275138.582  -1507202.820  -5876778.556
10 0 59247  18822.000000  0   -4036240.817  -1567780.087  -5364865.078
10 0 59247  18942.000000  0   -4727962.060  -1588419.255  -4759122.316
10 0 59247  19062.000000  0   -5337512.765  -1570058.345  -4070056.964
10 0 59247  19182.000000  0   -5853528.230  -1514523.518  -3309655.823
10 0 59247  19302.000000  0   -6266291.270  -1424474.420  -2491184.774
10 0 59247  19422.000000  0   -6567926.891  -1303330.624  -1628961.148
10 0 59247  19542.000000  0   -6752564.464  -1155181.014   -738103.652
10 0 59247  19662.000000  0   -6816462.899   -984677.723    165736.593
10 0 59247  19782.000000  0   -6758093.676   -796916.308   1066657.797
10 0 59247  19902.000000  0   -6578179.830   -597306.972   1948795.644
10 0 59247  20022.000000  0   -6279689.353   -391439.231   2796611.809
10 0 59247  20142.000000  0   -5867783.362   -184943.264   3595176.251
10 0 59247  20262.000000  0   -5349719.506     16648.357   4330436.960
10 0 59247  20382.000000  0   -4734713.967    208034.107   4989470.443
10 0 59247  20502.000000  0   -4033767.231    384269.909   5560708.146
10 0 59247  20622.000000  0   -3259458.343    540885.513   6034137.005
10 0 59247  20742.000000  0   -2425710.320    673987.381   6401470.580
10 0 59247  20862.000000  0   -1547533.509    780346.581   6656288.584
10 0 59247  20982.000000  0    -640750.550    857470.932   6794142.920
10 0 59247  21102.000000  0     278289.787    903658.968   6812629.278
10 0 59247  21222.000000  0    1193006.407    918035.277   6711426.014
10 0 59247  21342.000000  0    2086883.733    900567.226   6492299.554
10 0 59247  21462.000000  0    2943768.843    852062.128   6159075.795
10 0 59247  21582.000000  0    3748164.453    774144.984   5717578.235
10 0 59247  21702.000000  0    4485512.078    669217.470   5175531.169
10 0 59247  21822.000000  0    5142459.939    540398.106   4542431.258
10 0 59247  21942.000000  0    5707113.242    391444.898   3829387.575
10 0 59247  22062.000000  0    6169259.946    226663.205   3048929.431
10 0 59247  22182.000000  0    6520565.383     50799.970   2214785.649
10 0 59247  22302.000000  0    6754731.435   -131075.121   1341641.299
10 0 59247  22422.000000  0    6867618.059   -313696.201    444874.021
10 0 59247  22542.000000  0    6857321.535   -491732.956   -459724.406
10 0 59247  22662.000000  0    6724207.369   -659925.188  -1356235.823
10 0 59247  22782.000000  0    6470896.914   -813215.858  -2228904.369
10 0 59247  22902.000000  0    6102208.608   -946879.191  -3062420.624
10 0 59247  23022.000000  0    5625056.193  -1056640.864  -3842194.391
10 0 59247  23142.000000  0    5048306.938  -1138786.914  -4554611.036
10 0 59247  23262.000000  0    4382604.539  -1190258.651  -5187265.912
10 0 59247  23382.000000  0    3640162.066  -1208732.617  -5729174.164
10 0 59247  23502.000000  0    2834528.649  -1192684.052  -6170952.306
10 0 59247  23622.000000  0    1980336.806  -1141431.503  -6504969.415
10 0 59247  23742.000000  0    1093035.117  -1055162.181  -6725467.917
10 0 59247  23862.000000  0     188610.852   -934939.692  -6828652.824
10 0 59247  23982.000000  0    -716693.496   -782692.215  -6812749.844
10 0 59247  24102.000000  0   -1606664.930   -601182.202  -6678032.481
10 0 59247  24222.000000  0   -2465404.159   -393957.301  -6426817.741
10 0 59247  24342.000000  0   -3277603.006   -165283.840  -6063429.311
10 0 59247  24462.000000  0   -4028812.243     79936.487  -5594132.092
10 0 59247  24582.000000  0   -4705699.205    336265.892  -5027034.980
10 0 59247  24702.000000  0   -5296287.253    597843.401  -4371962.173
10 0 59247  24822.000000  0   -5790175.913    858510.834  -3640294.980
10 0 59247  24942.000000  0   -6178734.935   1111949.514  -2844782.727
10 0 59247  25062.000000  0   -6455267.478   1351824.014  -1999326.138
10 0 59247  25182.000000  0   -6615138.258   1571929.632  -1118736.579
10 0 59247  25302.000000  0   -6655863.645   1766341.242   -218474.141
10 0 59247  25422.000000  0   -6577157.937   1929557.461    685630.555
10 0 59247  25542.000000  0   -6380935.424   2056638.176   1577661.959
10 0 59247  25662.000000  0   -6071268.957   2143331.998   2441908.611
10 0 59247  25782.000000  0   -5654304.404   2186189.529   3263148.900
99
